GLOBALSTAR M094         
1 39074U 13005C   24280.86700664 -.00000072  00000+0  17957-3 0  9996
2 39074  51.9946 233.4016 0000822  64.8606 295.2346 12.62269023540384
GLOBALSTAR M078         
1 39076U 13005E   24280.77433924 -.00000135  00000+0 -17197-3 0  9997
2 39076  51.9905   6.8534 0000790  12.2979 347.7906 12.62273559537911
GLOBALSTAR M095         
1 39077U 13005F   24280.64269389 -.00000059  00000+0  24971-3 0  9998
2 39077  51.9829   4.5794 0000822  56.5311 303.5634 12.62265539537756
GLOBALSTAR M087         
1 52888U 22064A   24281.11775131 -.00000002  00000+0  23957-3 0  9999
2 52888  51.9751 178.0805 0008759 291.4313  68.5653 13.37588518112503
